     2              NAVIGATION DATA                         RINEX VERSION / TYPE
CCRINEXN V1.6.0 UX  CDDIS               25-APR-17 09:44     PGM / RUN BY / DATE 
IGS BROADCAST EPHEMERIS FILE                                COMMENT             
    0.9313D-08  0.1490D-07 -0.5960D-07 -0.1192D-06          ION ALPHA           
    0.8806D+05  0.4915D+05 -0.1311D+06 -0.3277D+06          ION BETA            
    0.931322574615D-09 0.000000000000D+00   405504     1946 DELTA-UTC: A0,A1,T,W
    18                                                      LEAP SECONDS        
                                                            END OF HEADER       
11 17  4 25  4  0  0.0-0.683633144945D-03-0.261479726760D-11 0.000000000000D+00
    0.970000000000D+02 0.797187500000D+02 0.630490548176D-08 0.276486022700D+01
    0.396557152271D-05 0.166791118681D-01 0.547058880329D-05 0.515370306778D+04
    0.187200000000D+06 0.277534127235D-06-0.229023704383D+01-0.169500708580D-06
    0.900345978635D+00 0.236406250000D+03 0.163555777911D+01-0.881929593050D-08
    0.506449667090D-09 0.100000000000D+01 0.194600000000D+04 0.000000000000D+00
    0.290000000000D+01 0.000000000000D+00-0.121071934700D-07 0.970000000000D+02
    0.180000000000D+06 0.400000000000D+01 0.000000000000D+00 0.000000000000D+00
12 17  4 25  4  0  0.0 0.384852755815D-03-0.682121026330D-12 0.000000000000D+00
    0.110000000000D+03-0.105375000000D+03 0.368086760862D-08 0.217007931357D+01
   -0.547617673874D-05 0.667887798045D-02 0.964291393757D-05 0.515354971504D+04
    0.187200000000D+06-0.819563865662D-07 0.235153998372D+01-0.819563865662D-07
    0.989367092162D+00 0.208593750000D+03 0.840087673435D+00-0.771282126996D-08
   -0.337156901081D-09 0.100000000000D+01 0.194600000000D+04 0.000000000000D+00
    0.200000000000D+01 0.000000000000D+00-0.125728547573D-07 0.110000000000D+03
    0.186486000000D+06 0.400000000000D+01 0.000000000000D+00 0.000000000000D+00
13 17  4 25  4  0  0.0-0.793314538896D-04-0.147792889038D-11 0.000000000000D+00
    0.340000000000D+02 0.986875000000D+02 0.398873757550D-08-0.249021142504D+01
    0.512413680553D-05 0.385617034044D-02 0.109132379293D-04 0.515369612503D+04
    0.187200000000D+06 0.372529029846D-07 0.314592207480D+00 0.558793544769D-08
    0.970213339817D+00 0.176343750000D+03 0.184602299310D+01-0.780532512312D-08
    0.229295265354D-09 0.100000000000D+01 0.194600000000D+04 0.000000000000D+00
    0.200000000000D+01 0.000000000000D+00-0.111758708954D-07 0.340000000000D+02
    0.180018000000D+06 0.400000000000D+01 0.000000000000D+00 0.000000000000D+00
15 17  4 25  4  0  0.0-0.348591245711D-03-0.795807864051D-12 0.000000000000D+00
    0.810000000000D+02 0.920000000000D+02 0.487591738725D-08-0.165056013129D+01
    0.468641519546D-05 0.910036312416D-02 0.116843730211D-04 0.515378835869D+04
    0.187200000000D+06 0.614672899246D-07 0.128163758649D+00-0.175088644028D-06
    0.929797989613D+00 0.139468750000D+03 0.580640799323D+00-0.810498046211D-08
    0.172150027882D-09 0.100000000000D+01 0.194600000000D+04 0.000000000000D+00
    0.200000000000D+01 0.000000000000D+00-0.107102096081D-07 0.810000000000D+02
    0.180258000000D+06 0.400000000000D+01 0.000000000000D+00 0.000000000000D+00
16 17  4 25  4  0  0.0 0.320347025990D-04 0.795807864051D-12 0.000000000000D+00
    0.680000000000D+02-0.107062500000D+03 0.376872841124D-08 0.167068966316D+00
   -0.545382499695D-05 0.937081524171D-02 0.102259218693D-04 0.515368681908D+04
    0.187200000000D+06 0.145286321640D-06 0.237039279772D+01 0.104308128357D-06
    0.989859851247D+00 0.197843750000D+03 0.435976973448D+00-0.789711466081D-08
   -0.401088135502D-09 0.100000000000D+01 0.194600000000D+04 0.000000000000D+00
    0.200000000000D+01 0.000000000000D+00-0.107102096081D-07 0.680000000000D+02
    0.180000000000D+06 0.400000000000D+01 0.000000000000D+00 0.000000000000D+00
17 17  4 25  4  0  0.0-0.182512216270D-03 0.170530256582D-11 0.000000000000D+00
    0.100000000000D+03 0.365937500000D+02 0.406838375023D-08-0.812154815108D+00
    0.207871198654D-05 0.116040186258D-01 0.123623758555D-04 0.515362171745D+04
    0.187200000000D+06-0.124797224999D-06-0.289544744111D+01 0.160187482834D-06
    0.979989071907D+00 0.157406250000D+03-0.184950764641D+01-0.787889961637D-08
    0.543236913712D-09 0.100000000000D+01 0.194600000000D+04 0.000000000000D+00
    0.280000000000D+01 0.000000000000D+00-0.111758708954D-07 0.100000000000D+03
    0.180018000000D+06 0.400000000000D+01 0.000000000000D+00 0.000000000000D+00
19 17  4 25  4  0  0.0-0.505980104208D-03 0.136424205266D-11 0.000000000000D+00
    0.114000000000D+03 0.378750000000D+02 0.403052503040D-08 0.230472738638D+01
    0.190921127796D-05 0.102574261837D-01 0.119991600513D-04 0.515366817474D+04
    0.187200000000D+06-0.651925802231D-07-0.284755995447D+01-0.245869159698D-06
    0.977216248202D+00 0.156843750000D+03 0.953260173215D+00-0.761245994665D-08
    0.583952895411D-09 0.100000000000D+01 0.194600000000D+04 0.000000000000D+00
    0.280000000000D+01 0.000000000000D+00-0.153668224812D-07 0.114000000000D+03
    0.180276000000D+06 0.400000000000D+01 0.000000000000D+00 0.000000000000D+00
20 17  4 25  4  0  0.0 0.469660852104D-03 0.147792889038D-11 0.000000000000D+00
    0.410000000000D+02-0.740312500000D+02 0.540701093799D-08-0.168646801730D+01
   -0.385195016861D-05 0.437379092909D-02 0.867620110512D-05 0.515366572761D+04
    0.187200000000D+06-0.558793544769D-08-0.943272941207D+00 0.158324837685D-06
    0.926753949673D+00 0.193718750000D+03 0.158795273222D+01-0.850213986254D-08
   -0.687171480593D-09 0.100000000000D+01 0.194600000000D+04 0.000000000000D+00
    0.200000000000D+01 0.000000000000D+00-0.838190317154D-08 0.410000000000D+02
    0.180018000000D+06 0.400000000000D+01 0.000000000000D+00 0.000000000000D+00
21 17  4 25  4  0  0.0-0.510582234711D-03 0.204636307899D-11 0.000000000000D+00
    0.100000000000D+03 0.149687500000D+02 0.574881088962D-08 0.157881145746D+01
    0.216066837311D-06 0.240216440288D-01 0.350177288055D-05 0.515368559265D+04
    0.187200000000D+06-0.502914190292D-07-0.193303859077D+01-0.668689608574D-06
    0.939033689882D+00 0.303812500000D+03-0.167971721798D+01-0.879322341591D-08
    0.219294848796D-09 0.100000000000D+01 0.194600000000D+04 0.000000000000D+00
    0.280000000000D+01 0.000000000000D+00-0.977888703346D-08 0.100000000000D+03
    0.180000000000D+06 0.000000000000D+00 0.000000000000D+00 0.000000000000D+00
22 17  4 25  4  0  0.0 0.306009314954D-04-0.120508047985D-10 0.000000000000D+00
    0.700000000000D+02-0.782187500000D+02 0.554273087699D-08-0.127618105566D+01
   -0.403076410294D-05 0.759939861018D-02 0.941753387451D-05 0.515353168106D+04
    0.187200000000D+06 0.186264514923D-08-0.891952192109D+00 0.178813934326D-06
    0.923478591664D+00 0.175062500000D+03-0.176277334594D+01-0.862500212310D-08
   -0.729673250963D-09 0.100000000000D+01 0.194600000000D+04 0.000000000000D+00
    0.200000000000D+01 0.000000000000D+00-0.176951289177D-07 0.700000000000D+02
    0.180000000000D+06 0.400000000000D+01 0.000000000000D+00 0.000000000000D+00
23 17  4 25  4  0  0.0-0.210502650589D-03-0.795807864051D-12 0.000000000000D+00
    0.670000000000D+02 0.885312500000D+02 0.447911514455D-08-0.208519400404D+01
    0.438839197159D-05 0.115801475477D-01 0.125095248222D-04 0.515376958466D+04
    0.187200000000D+06 0.856816768646D-07 0.191046304817D+00-0.132247805595D-06
    0.945036690834D+00 0.127562500000D+03-0.247695323694D+01-0.791104381244D-08
    0.354300472323D-09 0.100000000000D+01 0.194600000000D+04 0.000000000000D+00
    0.200000000000D+01 0.000000000000D+00-0.204890966415D-07 0.670000000000D+02
    0.180000000000D+06 0.400000000000D+01 0.000000000000D+00 0.000000000000D+00
24 17  4 25  4  0  0.0-0.338759273291D-04-0.568434188608D-12 0.000000000000D+00
    0.290000000000D+02 0.378437500000D+02 0.517414409530D-08-0.272267213022D+01
    0.200048089027D-05 0.563844258431D-02 0.150315463543D-05 0.515369135475D+04
    0.187200000000D+06 0.111758708954D-07 0.121455675217D+01-0.428408384323D-07
    0.945525596593D+00 0.343593750000D+03 0.489062399663D+00-0.867214694402D-08
    0.211794536378D-09 0.100000000000D+01 0.194600000000D+04 0.000000000000D+00
    0.200000000000D+01 0.000000000000D+00 0.279396772385D-08 0.290000000000D+02
    0.185262000000D+06 0.400000000000D+01 0.000000000000D+00 0.000000000000D+00
25 17  4 25  4  0  0.0-0.375966075808D-03-0.659383658785D-11 0.000000000000D+00
    0.610000000000D+02-0.994687500000D+02 0.410445668138D-08 0.160768688707D+01
   -0.523962080479D-05 0.647745642345D-02 0.926479697228D-05 0.515360269165D+04
    0.187200000000D+06-0.126659870148D-06 0.229665405499D+01 0.745058059692D-07
    0.977270254749D+00 0.208156250000D+03 0.793511793797D+00-0.801176229349D-08
   -0.404659712844D-09 0.100000000000D+01 0.194600000000D+04 0.000000000000D+00
    0.200000000000D+01 0.000000000000D+00 0.558793544769D-08 0.610000000000D+02
    0.180018000000D+06 0.400000000000D+01 0.000000000000D+00 0.000000000000D+00
26 17  4 25  4  0  0.0-0.510681420565D-03 0.318323145621D-11 0.000000000000D+00
    0.160000000000D+02-0.111312500000D+03 0.447661504041D-08 0.101924492348D+01
   -0.576674938202D-05 0.182965875138D-02 0.906921923161D-05 0.515369475555D+04
    0.187200000000D+06 0.353902578354D-07 0.228180607285D+01 0.279396772385D-07
    0.959048404627D+00 0.203062500000D+03 0.676836619019D-01-0.818569811004D-08
   -0.459662003910D-09 0.100000000000D+01 0.194600000000D+04 0.000000000000D+00
    0.200000000000D+01 0.000000000000D+00 0.745058059692D-08 0.160000000000D+02
    0.180000000000D+06 0.400000000000D+01 0.000000000000D+00 0.000000000000D+00
